ONEWEB-0656             
1 55817U 23029X   26200.70406666  .00000022  00000+0  22360-4 0  9997
2 55817  87.9184 267.9512 0001786  87.8522 272.2816 13.20769921165449
ONEWEB-0657             
1 55818U 23029Y   26200.82585381 -.00000011  00000+0 -59678-4 0  9995
2 55818  87.9183 298.4749 0002047  77.8857 282.2505 13.19727154163210
ONEWEB-0658             
1 55819U 23029Z   26200.82110108 -.00000033  00000+0 -11404-3 0  9995
2 55819  87.9194 298.4543 0002400 105.3019 254.8379 13.19726593163226
ONEWEB-0660             
1 55820U 23029AA  26200.78118760 -.00000124  00000+0 -36865-3 0  9993
2 55820  87.8974 283.2064 0001996 109.6087 250.5258 13.14502200163685
ONEWEB-0661             
1 55821U 23029AB  26200.73996300  .00000035  00000+0  60813-4 0  9993
2 55821  87.8952 283.2544 0001838 107.7322 252.4008 13.14502848163661
ONEWEB-0662             
1 55822U 23029AC  26200.77485347  .00000057  00000+0  12029-3 0  9991
2 55822  87.8957 283.2527 0002009 109.3847 250.7500 13.14502049163716
ONEWEB-0663             
1 55823U 23029AD  26200.73533427  .00000001  00000+0 -28980-4 0  9995
2 55823  87.9186 268.0159 0002231 108.7073 251.4302 13.20871676165447
ONEWEB-0664             
1 55824U 23029AE  26200.69060637  .00000135  00000+0  30130-3 0  9995
2 55824  87.9168 268.0021 0001608 105.5356 254.5955 13.20771971165436
ONEWEB-0665             
1 55825U 23029AF  26200.73679332 -.00000015  00000+0 -76096-4 0  9990
2 55825  87.8952 283.2357 0002086 108.9365 251.1991 13.14502477163680
ONEWEB-0666             
1 55826U 23029AG  26200.68385368 -.00000166  00000+0 -44130-3 0  9998
2 55826  87.9167 267.9937 0002381  81.5546 278.5857 13.20770723165446
ONEWEB-0667             
1 55827U 23029AH  26200.67880150 -.00000117  00000+0 -31863-3 0  9992
2 55827  87.9184 267.9578 0002018 103.6111 256.5247 13.20771101165437
ONEWEB-0669             
1 55828U 23029AJ  26200.74951422  .00000088  00000+0  18565-3 0  9991
2 55828  87.9180 267.9524 0001558  88.6367 271.4945 13.20770017165445
ONEWEB-0670             
1 55829U 23029AK  26200.79071154 -.00000155  00000+0 -45190-3 0  9993
2 55829  87.8954 283.2418 0001718 108.2603 251.8714 13.14502099163717
ONEWEB-0671             
1 55830U 23029AL  26200.74053856 -.00000105  00000+0 -29439-3 0  9992
2 55830  87.9186 298.4934 0001972 105.0556 255.0795 13.19725444163195
ONEWEB-0672             
1 55831U 23029AM  26200.74447257  .00000136  00000+0  30288-3 0  9991
2 55831  87.9178 267.9473 0002024  90.8119 269.3246 13.20770702165449
ONEWEB-0673             
1 55832U 23029AN  26200.79345272 -.00000011  00000+0 -59227-4 0  9990
2 55832  87.9191 298.4769 0001950 104.2462 255.8887 13.19725227163203
